IRIDIUM 8 [+]           
1 24792U 97020A   16270.51167108 -.00000021  00000-0 -14595-4 0  9990
2 24792  86.3930  68.9210 0001915  88.4917 271.6498 14.34214043 15407
IRIDIUM 7 [+]           
1 24793U 97020B   16270.50533071 -.00000062  00000-0 -29131-4 0  9993
2 24793  86.3934  69.1919 0001975  87.8541 272.2881 14.34213332 15406
IRIDIUM 6 [+]           
1 24794U 97020C   16270.49887243 -.00000084  00000-0 -36961-4 0  9998
2 24794  86.3933  69.1314 0002025  88.4255 271.7173 14.34212814 15403
IRIDIUM 5 [+]           
1 24795U 97020D   16270.49272726 -.00000052  00000-0 -25505-4 0  9990
2 24795  86.3916  69.1537 0002089  84.3630 275.7804 14.34209786 15481
IRIDIUM 4 [-]           
1 24796U 97020E   16270.51790894  .00000142  00000-0  42724-4 0  9995
2 24796  86.3928  68.2486 0002051  92.2628 329.8893 14.35104671 15489
IRIDIUM 914 [-]         
1 24836U 97030A   16270.53060954  .00000160  00000-0  45831-4 0  9992
2 24836  86.3895  85.7171 0000688 125.3006 234.8257 14.38706851 11031
IRIDIUM 12 [+]          
1 24837U 97030B   16270.51927846 -.00000034  00000-0 -19172-4 0  9994
2 24837  86.3918 100.3395 0001942  82.5028 332.0701 14.34217240  9152
IRIDIUM 10 [+]          
1 24839U 97030D   16270.50896392 -.00000046  00000-0 -23334-4 0  9994
2 24839  86.3918 100.3253 0001918  82.9940 343.9396 14.34215931  9164
IRIDIUM 13 [+]          
1 24840U 97030E   16270.51501023 -.00000038  00000-0 -20553-4 0  9992
2 24840  86.3920 100.4572 0001930  78.2107 281.9305 14.34217192  9152
IRIDIUM 16 [-]          
1 24841U 97030F   16270.51096089  .00000163  00000-0  48552-4 0  9990
2 24841  86.3996 100.4653 0004312  78.3624 281.8057 14.36657847  9721
IRIDIUM 911 [-]         
1 24842U 97030G   16270.53690462  .00000183  00000-0  46772-4 0  9992
2 24842  86.4423 101.3956 0012552 243.0600 116.9320 14.44890739 14875
IRIDIUM 15 [+]          
1 24869U 97034A   16270.55647738  .00000127  00000-0  38119-4 0  9999
2 24869  86.3955 132.3438 0002288  88.2254 271.9204 14.34222422  6120
IRIDIUM 17 [-]          
1 24870U 97034B   16270.16516858  .00000134  00000-0  39731-4 0  9995
2 24870  86.3962 130.8346 0002897  49.4657 310.6792 14.35703258  6296
IRIDIUM 920 [-]         
1 24871U 97034C   16270.56303120  .00000144  00000-0  39692-4 0  9993
2 24871  86.3950 117.4857 0013455 122.3223 237.9280 14.39424608  8427
IRIDIUM 18 [+]          
1 24872U 97034D   16270.53745078  .00000117  00000-0  34556-4 0  9997
2 24872  86.3963 132.3071 0002196  85.2087 274.9359 14.34222030  6124
IRIDIUM 921 [-]         
1 24873U 97034E   16270.41208192  .00001383  00000-0  81314-4 0  9996
2 24873  86.3981 190.5760 0005213 270.3829  89.6811 15.10771617 48260
IRIDIUM 26 [-]          
1 24903U 97043A   16270.35442216  .00000108  00000-0  30906-4 0  9995
2 24903  86.4013   5.2664 0002352  94.0272 330.4838 14.35211933   136
IRIDIUM 25 [+]          
1 24904U 97043B   16270.34623469  .00000221  00000-0  71923-4 0  9996
2 24904  86.4006   5.7432 0002328  97.2792 262.8668 14.34225874    16
IRIDIUM 46 [+]          
1 24905U 97043C   16270.35889642  .00000212  00000-0  68505-4 0  9997
2 24905  86.4015   6.2676 0002252  98.6785 261.4666 14.34217057    13
IRIDIUM 23 [+]          
1 24906U 97043D   16270.43149758  .00000205  00000-0  65971-4 0  9990
2 24906  86.4021   5.7157 0002273 100.4478 307.0684 14.34226936    38
IRIDIUM 22 [+]          
1 24907U 97043E   16270.32718291  .00000212  00000-0  68600-4 0  9993
2 24907  86.4015   6.3887 0002212  97.9042 262.2405 14.34217198    10
DUMMY MASS 1 [-]        
1 24925U 97048A   16270.19019865  .00000114  00000-0  10094-4 0  9999
2 24925  86.3401 165.1362 0004734 249.3347 110.7370 14.85097478 32401
DUMMY MASS 2 [-]        
1 24926U 97048B   16270.18751026  .00000116  00000-0  10375-4 0  9995
2 24926  86.3401 166.2087 0005466 260.7819  99.2787 14.84865935 32258
IRIDIUM 29 [-]          
1 24944U 97051A   16270.46003960  .00000103  00000-0  29573-4 0  9993
2 24944  86.3981  37.1920 0001811  92.8717 267.2686 14.34600335996614
IRIDIUM 32 [+]          
1 24945U 97051B   16270.49561391  .00000108  00000-0  31656-4 0  9994
2 24945  86.3979  37.3375 0002102  98.2635 261.8799 14.34213238996629
IRIDIUM 33 [-]          
1 24946U 97051C   16270.47238463  .00000123  00000-0  37411-4 0  9996
2 24946  86.3895  37.1114 0008882  35.8555 324.3235 14.33511910996251
IRIDIUM 28 [-]          
1 24948U 97051E   16270.50393830  .00000099  00000-0  27631-4 0  9997
2 24948  86.3986  36.5564 0002475  88.9687 271.1793 14.35503576996746
IRIDIUM 30 [+]          
1 24949U 97051F   16270.48930641  .00000179  00000-0  56752-4 0  9997
2 24949  86.3990  37.4320 0002517  88.7941 271.3543 14.34228156996607
IRIDIUM 31 [+]          
1 24950U 97051G   16270.41316034  .00000016  00000-0 -11831-5 0  9997
2 24950  86.3978  37.4632 0001987  94.6156 265.5266 14.34215755996603
IRIDIUM 19 [+]          
1 24965U 97056A   16270.53703952 -.00000023  00000-0 -15201-4 0  9993
2 24965  86.3931  68.9198 0001941  87.9749 272.1669 14.34212841994766
IRIDIUM 35 [+]          
1 24966U 97056B   16270.47997656 -.00000040  00000-0 -21175-4 0  9999
2 24966  86.3930  68.9396 0001965  88.2790 271.8631 14.34213747994730
IRIDIUM 36 [-]          
1 24967U 97056C   16270.37898279  .00000136  00000-0  40483-4 0  9997
2 24967  86.3943  68.2463 0002029  88.9094 271.2335 14.35554443995018
IRIDIUM 37 [+]          
1 24968U 97056D   16270.52436989 -.00000029  00000-0 -17273-4 0  9995
2 24968  86.3933  69.0999 0001917  88.2583 271.8832 14.34213426994741
IRIDIUM 34 [+]          
1 24969U 97056E   16270.54341795  .00000057  00000-0  13273-4 0  9993
2 24969  86.3934  69.0282 0002034  91.2708 268.8720 14.34215423994743
IRIDIUM 43 [+]          
1 25039U 97069A   16270.53109587  .00000170  00000-0  53661-4 0  9997
2 25039  86.3964 132.2402 0001975  80.2259 279.9159 14.34222399988522
IRIDIUM 41 [+]          
1 25040U 97069B   16270.52478661  .00000125  00000-0  37428-4 0  9993
2 25040  86.3961 132.1970 0002230  86.1590 273.9861 14.34222277988527
IRIDIUM 40 [+]          
1 25041U 97069C   16270.55023372  .00000163  00000-0  51302-4 0  9991
2 25041  86.3960 132.4131 0001492  56.2472 303.8866 14.34220147988549
IRIDIUM 39 [B]          
1 25042U 97069D   16270.52392837  .00000183  00000-0  45453-4 0  9996
2 25042  86.3920 131.7246 0020953 107.4708 252.8787 14.46087779988617
IRIDIUM 38 [-]          
1 25043U 97069E   16270.54523292  .00000128  00000-0  37435-4 0  9990
2 25043  86.3957 129.6910 0003333  79.6075 280.5497 14.35975875988899
IRIDIUM 42 [-]          
1 25077U 97077A   16270.52014646  .00000150  00000-0  46174-4 0  9997
2 25077  86.3965 132.1930 0002250  85.6234 274.5218 14.34502812984398
IRIDIUM 44 [-]          
1 25078U 97077B   16270.50498422  .00000164  00000-0  47754-4 0  9994
2 25078  86.3946 122.4264 0003624  73.4701 286.6895 14.38061893985737
IRIDIUM 45 [+]          
1 25104U 97082A   16270.47662074  .00000169  00000-0  53225-4 0  9997
2 25104  86.3978  37.4753 0003306  91.3886 268.7689 14.34214651982579
IRIDIUM 24 [-]          
1 25105U 97082B   16270.37291581  .00000129  00000-0  34826-4 0  9990
2 25105  86.3972 346.8722 0013444 127.7700 232.4719 14.39804909984895
IRIDIUM 47 [+]          
1 25106U 97082C   16270.36524620  .00000210  00000-0  67920-4 0  9995
2 25106  86.4004   5.6147 0002265 100.3452 259.7999 14.34226088982558
IRIDIUM 49 [+]          
1 25108U 97082E   16270.31912380  .00000205  00000-0  66289-4 0  9997
2 25108  86.4006   5.7297 0002278  98.4214 318.3073 14.34226113982550
IRIDIUM 52 [+]          
1 25169U 98010A   16270.47696928 -.00000034  00000-0 -19326-4 0  9992
2 25169  86.3922 100.6412 0001954  81.6855 278.4562 14.34217037973983
IRIDIUM 56 [+]          
1 25170U 98010B   16270.54032037 -.00000118  00000-0 -49181-4 0  9992
2 25170  86.3913 100.7151 0002212  86.2739 273.8710 14.34216844973974
IRIDIUM 54 [+]          
1 25171U 98010C   16270.50234971 -.00000038  00000-0 -20719-4 0  9997
2 25171  86.3923 100.6502 0001934  81.7499 278.3916 14.34216997974134
IRIDIUM 50 [+]          
1 25172U 98010D   16270.53406800 -.00000026  00000-0 -16470-4 0  9999
2 25172  86.3922 100.5946 0001859  83.8074 276.3333 14.34216369973978
IRIDIUM 53 [+]          
1 25173U 98010E   16270.48332640 -.00000025  00000-0 -16038-4 0  9993
2 25173  86.3922 100.6215 0001939  81.9042 278.2374 14.34216488973970
IRIDIUM 51 [S]          
1 25262U 98018A   16270.49897366 -.00000124  00000-0 -51313-4 0  9997
2 25262  86.3926  69.2278 0001906  92.8114 267.3300 14.34210032973367
IRIDIUM 61 [+]          
1 25263U 98018B   16270.46092538 -.00000038  00000-0 -20539-4 0  9993
2 25263  86.3932  69.0921 0001970  88.7073 271.4349 14.34213002969068
IRIDIUM 55 [+]          
1 25272U 98019A   16270.46388092  .00000147  00000-0  45288-4 0  9994
2 25272  86.3978  37.2607 0002149  96.8718 263.2722 14.34215936968264
IRIDIUM 57 [-]          
1 25273U 98019B   16270.50733291  .00000087  00000-0  24110-4 0  9999
2 25273  86.3984  37.5384 0002034  93.8841 266.2588 14.34235801968271
IRIDIUM 58 [+]          
1 25274U 98019C   16270.44485144  .00000150  00000-0  46413-4 0  9995
2 25274  86.3985  37.7544 0002162  98.4852 261.6589 14.34216942968262
IRIDIUM 59 [+]          
1 25275U 98019D   16270.45120913  .00000153  00000-0  47505-4 0  9993
2 25275  86.3979  37.6192 0002032  98.4753 261.6673 14.34216492968264
IRIDIUM 60 [+]          
1 25276U 98019E   16270.45754357  .00000145  00000-0  44570-4 0  9999
2 25276  86.3977  37.2464 0002136  96.6489 263.4950 14.34216601968262
IRIDIUM 62 [+]          
1 25285U 98021A   16270.48875383  .00000013  00000-0 -23499-5 0  9991
2 25285  86.3984 334.1617 0002318  98.1599 261.9860 14.34228445967227
IRIDIUM 63 [-]          
1 25286U 98021B   16270.52447858  .00000114  00000-0  33523-4 0  9998
2 25286  86.4015 334.5388 0001990  96.7387  36.5866 14.34613845967243
